[
    {
        "Altitude(m)": 558091.6742275154,
        "Argument of Periapsis(deg)": 0.019868973332140504,
        "Eccentricity": 0.0,
        "Inclination(deg)": 53.0,
        "Latitude(deg)": 45.209843593173424,
        "Longitude(deg)": -136.4004904777196,
        "Mean Anomaly(deg)": 117.54757860273276,
        "RAAN(deg)": 194.97043010558406,
        "Satellite Name": "Starlink Shell 1 863",
        "Satellite Number": 863,
        "Semi-Major Axis(m)": 6931778.249405717,
        "Time(s)": 570
    },
    {
        "Altitude(m)": 558017.0728709111,
        "Argument of Periapsis(deg)": 0.02021755181165174,
        "Eccentricity": 0.0,
        "Inclination(deg)": 53.0,
        "Latitude(deg)": 44.878488369450714,
        "Longitude(deg)": -135.68994770382966,
        "Mean Anomaly(deg)": 118.17440980628945,
        "RAAN(deg)": 194.96991133550657,
        "Satellite Name": "Starlink Shell 1 863",
        "Satellite Number": 863,
        "Semi-Major Axis(m)": 6931778.249405717,
        "Time(s)": 580
    },
    {
        "Altitude(m)": 557941.5560210265,
        "Argument of Periapsis(deg)": 0.020566130291162974,
        "Eccentricity": 0.0,
        "Inclination(deg)": 53.0,
        "Latitude(deg)": 44.54222186276952,
        "Longitude(deg)": -134.98804052782998,
        "Mean Anomaly(deg)": 118.80124100984621,
        "RAAN(deg)": 194.9693925654291,
        "Satellite Name": "Starlink Shell 1 863",
        "Satellite Number": 863,
        "Semi-Major Axis(m)": 6931778.249405717,
        "Time(s)": 590
    },
    {
        "Altitude(m)": 557865.1710150115,
        "Argument of Periapsis(deg)": 0.020914708770674213,
        "Eccentricity": 0.0,
        "Inclination(deg)": 53.0,
        "Latitude(deg)": 44.20115569707482,
        "Longitude(deg)": -134.29469250892683,
        "Mean Anomaly(deg)": 119.42807221340294,
        "RAAN(deg)": 194.96887379535164,
        "Satellite Name": "Starlink Shell 1 863",
        "Satellite Number": 863,
        "Semi-Major Axis(m)": 6931778.249405717,
        "Time(s)": 600
    },
    {
        "Altitude(m)": 557787.965838452,
        "Argument of Periapsis(deg)": 0.021263287250185448,
        "Eccentricity": 0.0,
        "Inclination(deg)": 53.0,
        "Latitude(deg)": 43.855399842544166,
        "Longitude(deg)": -133.6098217363133,
        "Mean Anomaly(deg)": 120.05490341695963,
        "RAAN(deg)": 194.96835502527415,
        "Satellite Name": "Starlink Shell 1 863",
        "Satellite Number": 863,
        "Semi-Major Axis(m)": 6931778.249405717,
        "Time(s)": 610
    },
    {
        "Altitude(m)": 557709.9891013555,
        "Argument of Periapsis(deg)": 0.021611865729696686,
        "Eccentricity": 0.0,
        "Inclination(deg)": 53.0,
        "Latitude(deg)": 43.50506256720854,
        "Longitude(deg)": -132.9333407788001,
        "Mean Anomaly(deg)": 120.68173462051635,
        "RAAN(deg)": 194.9678362551967,
        "Satellite Name": "Starlink Shell 1 863",
        "Satellite Number": 863,
        "Semi-Major Axis(m)": 6931778.249405717,
        "Time(s)": 620
    },
    {
        "Altitude(m)": 557631.2900138195,
        "Argument of Periapsis(deg)": 0.02196044420920792,
        "Eccentricity": 0.0,
        "Inclination(deg)": 53.0,
        "Latitude(deg)": 43.15025039586655,
        "Longitude(deg)": -132.26515829767268,
        "Mean Anomaly(deg)": 121.30856582407303,
        "RAAN(deg)": 194.96731748511925,
        "Satellite Name": "Starlink Shell 1 863",
        "Satellite Number": 863,
        "Semi-Major Axis(m)": 6931778.249405717,
        "Time(s)": 630
    },
    {
        "Altitude(m)": 557551.918361356,
        "Argument of Periapsis(deg)": 0.02230902268871916,
        "Eccentricity": 0.0,
        "Inclination(deg)": 53.0,
        "Latitude(deg)": 42.791068075857844,
        "Longitude(deg)": -131.60517811988703,
        "Mean Anomaly(deg)": 121.93539702762983,
        "RAAN(deg)": 194.96679871504176,
        "Satellite Name": "Starlink Shell 1 863",
        "Satellite Number": 863,
        "Semi-Major Axis(m)": 6931778.249405717,
        "Time(s)": 640
    },
    {
        "Altitude(m)": 557471.9244799109,
        "Argument of Periapsis(deg)": 0.022657601168230398,
        "Eccentricity": 0.0,
        "Inclination(deg)": 53.0,
        "Latitude(deg)": 42.42761854928109,
        "Longitude(deg)": -130.95330081421005,
        "Mean Anomaly(deg)": 122.5622282311865,
        "RAAN(deg)": 194.9662799449643,
        "Satellite Name": "Starlink Shell 1 863",
        "Satellite Number": 863,
        "Semi-Major Axis(m)": 6931778.249405717,
        "Time(s)": 650
    },
    {
        "Altitude(m)": 557391.3592305679,
        "Argument of Periapsis(deg)": 0.023006179647741636,
        "Eccentricity": 0.0,
        "Inclination(deg)": 53.0,
        "Latitude(deg)": 42.06000293123287,
        "Longitude(deg)": -130.30942356772132,
        "Mean Anomaly(deg)": 123.18905943474321,
        "RAAN(deg)": 194.9657611748868,
        "Satellite Name": "Starlink Shell 1 863",
        "Satellite Number": 863,
        "Semi-Major Axis(m)": 6931778.249405717,
        "Time(s)": 660
    },
    {
        "Altitude(m)": 557310.2739739519,
        "Argument of Periapsis(deg)": 0.023354758127252868,
        "Eccentricity": 0.0,
        "Inclination(deg)": 53.0,
        "Latitude(deg)": 41.68832049366314,
        "Longitude(deg)": -129.67344004361996,
        "Mean Anomaly(deg)": 123.81589063829986,
        "RAAN(deg)": 194.96524240480932,
        "Satellite Name": "Starlink Shell 1 863",
        "Satellite Number": 863,
        "Semi-Major Axis(m)": 6931778.249405717,
        "Time(s)": 670
    },
    {
        "Altitude(m)": 557228.7205443851,
        "Argument of Periapsis(deg)": 0.023703336606764106,
        "Eccentricity": 0.0,
        "Inclination(deg)": 53.0,
        "Latitude(deg)": 41.3126686544508,
        "Longitude(deg)": -129.0452417332899,
        "Mean Anomaly(deg)": 124.44272184185662,
        "RAAN(deg)": 194.96472363473185,
        "Satellite Name": "Starlink Shell 1 863",
        "Satellite Number": 863,
        "Semi-Major Axis(m)": 6931778.249405717,
        "Time(s)": 680
    },
    {
        "Altitude(m)": 557146.7512237146,
        "Argument of Periapsis(deg)": 0.024051915086275345,
        "Eccentricity": 0.0,
        "Inclination(deg)": 53.0,
        "Latitude(deg)": 40.93314297131196,
        "Longitude(deg)": -128.4247177770729,
        "Mean Anomaly(deg)": 125.06955304541341,
        "RAAN(deg)": 194.9642048646544,
        "Satellite Name": "Starlink Shell 1 863",
        "Satellite Number": 863,
        "Semi-Major Axis(m)": 6931778.249405717,
        "Time(s)": 690
    },
    {
        "Altitude(m)": 557064.4187149298,
        "Argument of Periapsis(deg)": 0.024400493565786583,
        "Eccentricity": 0.0,
        "Inclination(deg)": 53.0,
        "Latitude(deg)": 40.549837140169245,
        "Longitude(deg)": -127.81175476688972,
        "Mean Anomaly(deg)": 125.69638424897005,
        "RAAN(deg)": 194.9636860945769,
        "Satellite Name": "Starlink Shell 1 863",
        "Satellite Number": 863,
        "Semi-Major Axis(m)": 6931778.249405717,
        "Time(s)": 700
    },
    {
        "Altitude(m)": 556981.776115518,
        "Argument of Periapsis(deg)": 0.024749072045297815,
        "Eccentricity": 0.0,
        "Inclination(deg)": 53.0,
        "Latitude(deg)": 40.16284299762802,
        "Longitude(deg)": -127.20623804393553,
        "Mean Anomaly(deg)": 126.32321545252677,
        "RAAN(deg)": 194.96316732449944,
        "Satellite Name": "Starlink Shell 1 863",
        "Satellite Number": 863,
        "Semi-Major Axis(m)": 6931778.249405717,
        "Time(s)": 710
    },
    {
        "Altitude(m)": 556898.8768905713,
        "Argument of Periapsis(deg)": 0.025097650524809053,
        "Eccentricity": 0.0,
        "Inclination(deg)": 53.0,
        "Latitude(deg)": 39.7722505272135,
        "Longitude(deg)": -126.60805146611862,
        "Mean Anomaly(deg)": 126.95004665608344,
        "RAAN(deg)": 194.96264855442197,
        "Satellite Name": "Starlink Shell 1 863",
        "Satellite Number": 863,
        "Semi-Major Axis(m)": 6931778.249405717,
        "Time(s)": 720
    },
    {
        "Altitude(m)": 556815.7748456969,
        "Argument of Periapsis(deg)": 0.02544622900432029,
        "Eccentricity": 0.0,
        "Inclination(deg)": 53.0,
        "Latitude(deg)": 39.378147869043225,
        "Longitude(deg)": -126.01707715858103,
        "Mean Anomaly(deg)": 127.57687785964025,
        "RAAN(deg)": 194.96212978434448,
        "Satellite Name": "Starlink Shell 1 863",
        "Satellite Number": 863,
        "Semi-Major Axis(m)": 6931778.249405717,
        "Time(s)": 730
    },
    {
        "Altitude(m)": 556732.524099684,
        "Argument of Periapsis(deg)": 0.02579480748383153,
        "Eccentricity": 0.0,
        "Inclination(deg)": 53.0,
        "Latitude(deg)": 38.98062133262671,
        "Longitude(deg)": -125.43319676068418,
        "Mean Anomaly(deg)": 128.20370906319695,
        "RAAN(deg)": 194.96161101426702,
        "Satellite Name": "Starlink Shell 1 863",
        "Satellite Number": 863,
        "Semi-Major Axis(m)": 6931778.249405717,
        "Time(s)": 740
    },
    {
        "Altitude(m)": 556649.1790570297,
        "Argument of Periapsis(deg)": 0.026143385963342765,
        "Eccentricity": 0.0,
        "Inclination(deg)": 53.0,
        "Latitude(deg)": 38.579755412493746,
        "Longitude(deg)": -124.8562911442619,
        "Mean Anomaly(deg)": 128.83054026675362,
        "RAAN(deg)": 194.96109224418953,
        "Satellite Name": "Starlink Shell 1 863",
        "Satellite Number": 863,
        "Semi-Major Axis(m)": 6931778.249405717,
        "Time(s)": 750
    }
]